SL-14 R/B               
1 16792U 86046B   26079.24732885  .00000407  00000+0  44056-4 0  9995
2 16792  82.4790  70.2028 0022785 189.3162 170.7635 14.85600014127974
SL-14 R/B               
1 16882U 86055B   26079.17674340  .00000371  00000+0  40010-4 0  9994
2 16882  82.5181 116.8156 0017501 299.8809 129.8741 14.85651414120924
AJISAI (EGS)            
1 16908U 86061A   26079.26432870 -.00000111  00000+0 -98434-4 0  9997
2 16908  50.0099  60.8294 0011308 314.2501 243.4157 12.44515657469316
SL-14 R/B               
1 17567U 87024B   26079.27687783  .00000407  00000+0  43575-4 0  9997
2 17567  82.5245  82.8096 0017122 222.0659 137.9244 14.86141575 89702
COSMOS 1833             
1 17589U 87027A   26079.05399621 -.00000237  00000+0 -10094-3 0  9993
2 17589  70.9196 304.2359 0023731 199.6118 160.4093 14.13051451 11786
SL-16 R/B               
1 17590U 87027B   26078.92702874 -.00000108  00000+0 -29695-4 0  9993
2 17590  70.9993 254.9201 0003047 118.9735 241.1694 14.17166688 16790
SL-14 R/B               
1 17912U 87038B   26079.07519971  .00000387  00000+0  42002-4 0  9998
2 17912  82.4985 287.0222 0020439 127.6163 232.6913 14.85378100 80770
COSMOS 1844             
1 17973U 87041A   26079.21958977  .00000079  00000+0  66117-4 0  9999
2 17973  70.9009  11.9656 0030555   2.5053 357.6215 14.14551454  5070
SL-14 R/B               
1 18153U 87055B   26079.18495805  .00000402  00000+0  43498-4 0  9994
2 18153  82.5024 339.1423 0020194 343.2280  16.8265 14.85639964 71498
COSMOS 1867             
1 18187U 87060A   26078.99035929 -.00000037  00000+0  23678-4 0  9995
2 18187  65.0095 277.8575 0014649 279.2806  80.6622 14.31504573 21416
SL-14 R/B               
1 18749U 88001B   26079.24838209  .00000457  00000+0  50029-4 0  9991
2 18749  82.5160 185.4322 0017578 198.9590 161.0974 14.85539411 43597
COSMOS 1933             
1 18958U 88020A   26078.94128104  .00003956  00000+0  19269-3 0  9993
2 18958  82.5105 240.7660 0004693 148.8684 211.2829 15.18074846 51780
